{
  "type": "FeatureCollection",
  "features": [
    {
      "type": "Feature",
      "properties": {
        "norad_id": 31051,
        "name": "FENGYUN 1C DEB",
        "group": "fengyun-1c-debris",
        "lat": 1.0317387285454487,
        "lon": -156.8889713447149,
        "alt_km": 866.2809624779366,
        "timestamp": "2025-12-18T13:51:49.964181+00:00",
        "meta_object_name": "FENGYUN 1C DEB",
        "meta_object_id": "1999-025BEV",
        "meta_epoch": "2025-12-12T21:48:30.367584",
        "meta_mean_motion": 14.03033745,
        "meta_eccentricity": 0.00534524,
        "meta_inclination": 98.8183,
        "meta_ra_of_asc_node": 17.4591,
        "meta_arg_of_pericenter": 135.0078,
        "meta_mean_anomaly": 225.5438,
        "meta_ephemeris_type": 0,
        "meta_classification_type": "U",
        "meta_norad_cat_id": 31051,
        "meta_element_set_no": 999,
        "meta_rev_at_epoch": 63821,
        "meta_bstar": 0.00016986752,
        "meta_mean_motion_dot": 2.25e-06,
        "meta_mean_motion_ddot": 0,
        "tle_line1": "1 31051U 99025BEV 25346.90868481  .00000225  00000+0  16987-3 0  9991",
        "tle_line2": "2 31051  98.8183  17.4591 0053452 135.0078 225.5438 14.03033745638218"
      },
      "geometry": {
        "type": "Point",
        "coordinates": [
          -156.8889713447149,
          1.0317387285454487
        ]
      }
    },
    {
      "type": "Feature",
      "properties": {
        "norad_id": 31053,
        "name": "FENGYUN 1C DEB",
        "group": "fengyun-1c-debris",
        "lat": -24.12189031300026,
        "lon": -69.32812238105473,
        "alt_km": 1109.2441326799699,
        "timestamp": "2025-12-18T13:51:49.964191+00:00",
        "meta_object_name": "FENGYUN 1C DEB",
        "meta_object_id": "1999-025BEX",
        "meta_epoch": "2025-12-17T14:12:59.745024",
        "meta_mean_motion": 13.75888254,
        "meta_eccentricity": 0.03088055,
        "meta_inclination": 98.794,
        "meta_ra_of_asc_node": 113.7353,
        "meta_arg_of_pericenter": 82.013,
        "meta_mean_anomaly": 281.5941,
        "meta_ephemeris_type": 0,
        "meta_classification_type": "U",
        "meta_norad_cat_id": 31053,
        "meta_element_set_no": 999,
        "meta_rev_at_epoch": 93543,
        "meta_bstar": 0.0010857587,
        "meta_mean_motion_dot": 1.455e-05,
        "meta_mean_motion_ddot": 0,
        "tle_line1": "1 31053U 99025BEX 25351.59235816  .00001455  00000+0  10858-2 0  9990",
        "tle_line2": "2 31053  98.7940 113.7353 0308805  82.0130 281.5941 13.75888254935437"
      },
      "geometry": {
        "type": "Point",
        "coordinates": [
          -69.32812238105473,
          -24.12189031300026
        ]
      }
    },
    {
      "type": "Feature",
      "properties": {
        "norad_id": 31054,
        "name": "FENGYUN 1C DEB",
        "group": "fengyun-1c-debris",
        "lat": 24.631208124497913,
        "lon": 1.4084917929030343,
        "alt_km": 849.8816936939247,
        "timestamp": "2025-12-18T13:51:49.964201+00:00",
        "meta_object_name": "FENGYUN 1C DEB",
        "meta_object_id": "1999-025BEY",
        "meta_epoch": "2025-12-18T07:02:32.055648",
        "meta_mean_motion": 14.12173261,
        "meta_eccentricity": 0.00107754,
        "meta_inclination": 98.6898,
        "meta_ra_of_asc_node": 5.1539,
        "meta_arg_of_pericenter": 106.1501,
        "meta_mean_anomaly": 274.8181,
        "meta_ephemeris_type": 0,
        "meta_classification_type": "U",
        "meta_norad_cat_id": 31054,
        "meta_element_set_no": 999,
        "meta_rev_at_epoch": 96842,
        "meta_bstar": 0.00013053316,
        "meta_mean_motion_dot": 1.97e-06,
        "meta_mean_motion_ddot": 0,
        "tle_line1": "1 31054U 99025BEY 25352.29342657  .00000197  00000+0  13053-3 0  9994",
        "tle_line2": "2 31054  98.6898   5.1539 0010775 106.1501 274.8181 14.12173261968428"
      },
      "geometry": {
        "type": "Point",
        "coordinates": [
          1.4084917929030343,
          24.631208124497913
        ]
      }
    },
    {
      "type": "Feature",
      "properties": {
        "norad_id": 31055,
        "name": "FENGYUN 1C DEB",
        "group": "fengyun-1c-debris",
        "lat": 67.94682421076395,
        "lon": -133.9927545341141,
        "alt_km": 865.6334086035667,
        "timestamp": "2025-12-18T13:51:49.964213+00:00",
        "meta_object_name": "FENGYUN 1C DEB",
        "meta_object_id": "1999-025BEZ",
        "meta_epoch": "2025-12-18T01:41:11.862816",
        "meta_mean_motion": 14.10383215,
        "meta_eccentricity": 0.00241229,
        "meta_inclination": 98.7594,
        "meta_ra_of_asc_node": 23.1427,
        "meta_arg_of_pericenter": 256.3258,
        "meta_mean_anomaly": 159.3621,
        "meta_ephemeris_type": 0,
        "meta_classification_type": "U",
        "meta_norad_cat_id": 31055,
        "meta_element_set_no": 999,
        "meta_rev_at_epoch": 96197,
        "meta_bstar": 0.00026079082,
        "meta_mean_motion_dot": 4.21e-06,
        "meta_mean_motion_ddot": 0,
        "tle_line1": "1 31055U 99025BEZ 25352.07027619  .00000421  00000+0  26079-3 0  9991",
        "tle_line2": "2 31055  98.7594  23.1427 0024122 256.3258 159.3621 14.10383215961976"
      },
      "geometry": {
        "type": "Point",
        "coordinates": [
          -133.9927545341141,
          67.94682421076395
        ]
      }
    },
    {
      "type": "Feature",
      "properties": {
        "norad_id": 31056,
        "name": "FENGYUN 1C DEB",
        "group": "fengyun-1c-debris",
        "lat": 23.76131718214486,
        "lon": 158.81391324986183,
        "alt_km": 862.0055523969404,
        "timestamp": "2025-12-18T13:51:49.964223+00:00",
        "meta_object_name": "FENGYUN 1C DEB",
        "meta_object_id": "1999-025BFA",
        "meta_epoch": "2025-12-17T10:42:02.323872",
        "meta_mean_motion": 14.1431294,
        "meta_eccentricity": 0.0025232,
        "meta_inclination": 98.6675,
        "meta_ra_of_asc_node": 333.8653,
        "meta_arg_of_pericenter": 329.2743,
        "meta_mean_anomaly": 187.2529,
        "meta_ephemeris_type": 0,
        "meta_classification_type": "U",
        "meta_norad_cat_id": 31056,
        "meta_element_set_no": 999,
        "meta_rev_at_epoch": 96884,
        "meta_bstar": 0.00034026654,
        "meta_mean_motion_dot": 6.09e-06,
        "meta_mean_motion_ddot": 0,
        "tle_line1": "1 31056U 99025BFA 25351.44586023  .00000609  00000+0  34027-3 0  9991",
        "tle_line2": "2 31056  98.6675 333.8653 0025232 329.2743 187.2529 14.14312940968841"
      },
      "geometry": {
        "type": "Point",
        "coordinates": [
          158.81391324986183,
          23.76131718214486
        ]
      }
    },
    {
      "type": "Feature",
      "properties": {
        "norad_id": 31057,
        "name": "FENGYUN 1C DEB",
        "group": "fengyun-1c-debris",
        "lat": -23.924140541067807,
        "lon": 37.0304755640279,
        "alt_km": 655.0429628510901,
        "timestamp": "2025-12-18T13:51:49.964233+00:00",
        "meta_object_name": "FENGYUN 1C DEB",
        "meta_object_id": "1999-025BFB",
        "meta_epoch": "2025-12-07T08:31:09.738912",
        "meta_mean_motion": 14.79274467,
        "meta_eccentricity": 0.0137797,
        "meta_inclination": 99.2572,
        "meta_ra_of_asc_node": 19.9678,
        "meta_arg_of_pericenter": 268.7892,
        "meta_mean_anomaly": 89.7526,
        "meta_ephemeris_type": 0,
        "meta_classification_type": "U",
        "meta_norad_cat_id": 31057,
        "meta_element_set_no": 999,
        "meta_rev_at_epoch": 61873,
        "meta_bstar": 0.0014079461,
        "meta_mean_motion_dot": 0.00012236,
        "meta_mean_motion_ddot": 0,
        "tle_line1": "1 31057U 99025BFB 25341.35497383  .00012236  00000+0  14079-2 0  9994",
        "tle_line2": "2 31057  99.2572  19.9678 0137797 268.7892  89.7526 14.79274467618731"
      },
      "geometry": {
        "type": "Point",
        "coordinates": [
          37.0304755640279,
          -23.924140541067807
        ]
      }
    },
    {
      "type": "Feature",
      "properties": {
        "norad_id": 31058,
        "name": "FENGYUN 1C DEB",
        "group": "fengyun-1c-debris",
        "lat": 71.62958660703777,
        "lon": -87.59685324978022,
        "alt_km": 568.8859973678254,
        "timestamp": "2025-12-18T13:51:49.964244+00:00",
        "meta_object_name": "FENGYUN 1C DEB",
        "meta_object_id": "1999-025BFC",
        "meta_epoch": "2025-12-16T02:58:40.790208",
        "meta_mean_motion": 14.76385541,
        "meta_eccentricity": 0.00951524,
        "meta_inclination": 99.5654,
        "meta_ra_of_asc_node": 300.0182,
        "meta_arg_of_pericenter": 95.8616,
        "meta_mean_anomaly": 265.3444,
        "meta_ephemeris_type": 0,
        "meta_classification_type": "U",
        "meta_norad_cat_id": 31058,
        "meta_element_set_no": 999,
        "meta_rev_at_epoch": 99599,
        "meta_bstar": 0.00080135527,
        "meta_mean_motion_dot": 5.927e-05,
        "meta_mean_motion_ddot": 0,
        "tle_line1": "1 31058U 99025BFC 25350.12408322  .00005927  00000+0  80136-3 0  9992",
        "tle_line2": "2 31058  99.5654 300.0182 0095152  95.8616 265.3444 14.76385541995991"
      },
      "geometry": {
        "type": "Point",
        "coordinates": [
          -87.59685324978022,
          71.62958660703777
        ]
      }
    }
  ]
}